CCSDS_OMM_VERS = 2.0
CREATION_DATE  = 
ORIGINATOR     = 

OBJECT_NAME    = TRANSPORTER-15Y
OBJECT_ID      = 2025-276Y
CENTER_NAME    = EARTH
REF_FRAME      = TEME
TIME_SYSTEM    = UTC
MEAN_ELEMENT_THEORY = SGP/SGP4

EPOCH          = 2025-12-25T12:54:40.837824
MEAN_MOTION    = 15.17117879
ECCENTRICITY   = .0003764
INCLINATION    = 97.4426
RA_OF_ASC_NODE = 71.0715
ARG_OF_PERICENTER = 234.2435
MEAN_ANOMALY   = 125.8449

EPHEMERIS_TYPE = 0
CLASSIFICATION_TYPE = U
NORAD_CAT_ID   = 66688
ELEMENT_SET_NO = 999
REV_AT_EPOCH   = 406
BSTAR          = .56854E-3
MEAN_MOTION_DOT = .11216E-3
MEAN_MOTION_DDOT = 0

CCSDS_OMM_VERS = 2.0
CREATION_DATE  = 
ORIGINATOR     = 

OBJECT_NAME    = TRANSPORTER-15Z
OBJECT_ID      = 2025-276Z
CENTER_NAME    = EARTH
REF_FRAME      = TEME
TIME_SYSTEM    = UTC
MEAN_ELEMENT_THEORY = SGP/SGP4

EPOCH          = 2025-12-22T21:27:46.425312
MEAN_MOTION    = 15.23073772
ECCENTRICITY   = .00272271
INCLINATION    = 97.4409
RA_OF_ASC_NODE = 68.4858
ARG_OF_PERICENTER = 260.8557
MEAN_ANOMALY   = 98.9599

EPHEMERIS_TYPE = 0
CLASSIFICATION_TYPE = U
NORAD_CAT_ID   = 66689
ELEMENT_SET_NO = 999
REV_AT_EPOCH   = 366
BSTAR          = .86131248E-1
MEAN_MOTION_DOT = .2294864E-1
MEAN_MOTION_DDOT = 0

CCSDS_OMM_VERS = 2.0
CREATION_DATE  = 
ORIGINATOR     = 

OBJECT_NAME    = TRANSPORTER-15AA
OBJECT_ID      = 2025-276AA
CENTER_NAME    = EARTH
REF_FRAME      = TEME
TIME_SYSTEM    = UTC
MEAN_ELEMENT_THEORY = SGP/SGP4

EPOCH          = 2025-12-26T03:09:38.261376
MEAN_MOTION    = 15.17097621
ECCENTRICITY   = .000369
INCLINATION    = 97.4389
RA_OF_ASC_NODE = 71.6416
ARG_OF_PERICENTER = 231.8633
MEAN_ANOMALY   = 128.2268

EPHEMERIS_TYPE = 0
CLASSIFICATION_TYPE = U
NORAD_CAT_ID   = 66690
ELEMENT_SET_NO = 999
REV_AT_EPOCH   = 415
BSTAR          = .33328E-3
MEAN_MOTION_DOT = .6539E-4
MEAN_MOTION_DDOT = 0

CCSDS_OMM_VERS = 2.0
CREATION_DATE  = 
ORIGINATOR     = 

OBJECT_NAME    = TRANSPORTER-15AB
OBJECT_ID      = 2025-276AB
CENTER_NAME    = EARTH
REF_FRAME      = TEME
TIME_SYSTEM    = UTC
MEAN_ELEMENT_THEORY = SGP/SGP4

EPOCH          = 2025-12-26T03:05:57.948288
MEAN_MOTION    = 15.17366768
ECCENTRICITY   = .0003789
INCLINATION    = 97.4412
RA_OF_ASC_NODE = 71.6530
ARG_OF_PERICENTER = 233.7026
MEAN_ANOMALY   = 126.3858

EPHEMERIS_TYPE = 0
CLASSIFICATION_TYPE = U
NORAD_CAT_ID   = 66691
ELEMENT_SET_NO = 999
REV_AT_EPOCH   = 415
BSTAR          = .56038E-3
MEAN_MOTION_DOT = .11133E-3
MEAN_MOTION_DDOT = 0

CCSDS_OMM_VERS = 2.0
CREATION_DATE  = 
ORIGINATOR     = 

OBJECT_NAME    = TRANSPORTER-15AC
OBJECT_ID      = 2025-276AC
CENTER_NAME    = EARTH
REF_FRAME      = TEME
TIME_SYSTEM    = UTC
MEAN_ELEMENT_THEORY = SGP/SGP4

EPOCH          = 2025-12-26T04:36:08.313696
MEAN_MOTION    = 15.17447229
ECCENTRICITY   = .000178
INCLINATION    = 97.4413
RA_OF_ASC_NODE = 71.7258
ARG_OF_PERICENTER = 246.4774
MEAN_ANOMALY   = 113.6272

EPHEMERIS_TYPE = 0
CLASSIFICATION_TYPE = U
NORAD_CAT_ID   = 66692
ELEMENT_SET_NO = 999
REV_AT_EPOCH   = 416
BSTAR          = .30394E-3
MEAN_MOTION_DOT = .6017E-4
MEAN_MOTION_DDOT = 0

CCSDS_OMM_VERS = 2.0
CREATION_DATE  = 
ORIGINATOR     = 

OBJECT_NAME    = TRANSPORTER-15AD
OBJECT_ID      = 2025-276AD
CENTER_NAME    = EARTH
REF_FRAME      = TEME
TIME_SYSTEM    = UTC
MEAN_ELEMENT_THEORY = SGP/SGP4

EPOCH          = 2025-12-26T04:35:30.218208
MEAN_MOTION    = 15.17711581
ECCENTRICITY   = .0003229
INCLINATION    = 97.4367
RA_OF_ASC_NODE = 71.7053
ARG_OF_PERICENTER = 259.4473
MEAN_ANOMALY   = 100.6397

EPHEMERIS_TYPE = 0
CLASSIFICATION_TYPE = U
NORAD_CAT_ID   = 66693
ELEMENT_SET_NO = 999
REV_AT_EPOCH   = 416
BSTAR          = .73291E-3
MEAN_MOTION_DOT = .14732E-3
MEAN_MOTION_DDOT = 0

CCSDS_OMM_VERS = 2.0
CREATION_DATE  = 
ORIGINATOR     = 

OBJECT_NAME    = YAM-9
OBJECT_ID      = 2025-276AE
CENTER_NAME    = EARTH
REF_FRAME      = TEME
TIME_SYSTEM    = UTC
MEAN_ELEMENT_THEORY = SGP/SGP4

EPOCH          = 2025-12-26T04:33:09.290304
MEAN_MOTION    = 15.17618841
ECCENTRICITY   = .0001457
INCLINATION    = 97.4414
RA_OF_ASC_NODE = 71.7237
ARG_OF_PERICENTER = 235.5203
MEAN_ANOMALY   = 124.5893

EPHEMERIS_TYPE = 0
CLASSIFICATION_TYPE = U
NORAD_CAT_ID   = 66694
ELEMENT_SET_NO = 999
REV_AT_EPOCH   = 416
BSTAR          = .51975E-3
MEAN_MOTION_DOT = .10393E-3
MEAN_MOTION_DDOT = 0

CCSDS_OMM_VERS = 2.0
CREATION_DATE  = 
ORIGINATOR     = 

OBJECT_NAME    = IRIDE FM1
OBJECT_ID      = 2025-276AF
CENTER_NAME    = EARTH
REF_FRAME      = TEME
TIME_SYSTEM    = UTC
MEAN_ELEMENT_THEORY = SGP/SGP4

EPOCH          = 2025-12-26T00:00:02.000160
MEAN_MOTION    = 15.18291380
ECCENTRICITY   = .0001634
INCLINATION    = 97.4391
RA_OF_ASC_NODE = 71.5613
ARG_OF_PERICENTER = 141.9613
MEAN_ANOMALY   = 328.0688

EPHEMERIS_TYPE = 0
CLASSIFICATION_TYPE = U
NORAD_CAT_ID   = 66695
ELEMENT_SET_NO = 999
REV_AT_EPOCH   = 130
BSTAR          = .1607E-2
MEAN_MOTION_DOT = .33003E-3
MEAN_MOTION_DDOT = 0

CCSDS_OMM_VERS = 2.0
CREATION_DATE  = 
ORIGINATOR     = 

OBJECT_NAME    = IRIDE FM2
OBJECT_ID      = 2025-276AG
CENTER_NAME    = EARTH
REF_FRAME      = TEME
TIME_SYSTEM    = UTC
MEAN_ELEMENT_THEORY = SGP/SGP4

EPOCH          = 2025-12-26T03:02:11.842080
MEAN_MOTION    = 15.17459009
ECCENTRICITY   = .0002484
INCLINATION    = 97.4384
RA_OF_ASC_NODE = 71.6453
ARG_OF_PERICENTER = 249.7526
MEAN_ANOMALY   = 110.3441

EPHEMERIS_TYPE = 0
CLASSIFICATION_TYPE = U
NORAD_CAT_ID   = 66696
ELEMENT_SET_NO = 999
REV_AT_EPOCH   = 415
BSTAR          = .451E-3
MEAN_MOTION_DOT = .8967E-4
MEAN_MOTION_DDOT = 0

CCSDS_OMM_VERS = 2.0
CREATION_DATE  = 
ORIGINATOR     = 

OBJECT_NAME    = IRIDE FM3
OBJECT_ID      = 2025-276AH
CENTER_NAME    = EARTH
REF_FRAME      = TEME
TIME_SYSTEM    = UTC
MEAN_ELEMENT_THEORY = SGP/SGP4

EPOCH          = 2025-12-26T04:17:44.805120
MEAN_MOTION    = 15.18215864
ECCENTRICITY   = .000149
INCLINATION    = 97.4382
RA_OF_ASC_NODE = 71.7284
ARG_OF_PERICENTER = 148.9417
MEAN_ANOMALY   = 211.1906

EPHEMERIS_TYPE = 0
CLASSIFICATION_TYPE = U
NORAD_CAT_ID   = 66697
ELEMENT_SET_NO = 999
REV_AT_EPOCH   = 416
BSTAR          = .30457E-3
MEAN_MOTION_DOT = .6165E-4
MEAN_MOTION_DDOT = 0

CCSDS_OMM_VERS = 2.0
CREATION_DATE  = 
ORIGINATOR     = 

OBJECT_NAME    = IRIDE FM4
OBJECT_ID      = 2025-276AJ
CENTER_NAME    = EARTH
REF_FRAME      = TEME
TIME_SYSTEM    = UTC
MEAN_ELEMENT_THEORY = SGP/SGP4

EPOCH          = 2025-12-26T04:00:01.998720
MEAN_MOTION    = 15.17368539
ECCENTRICITY   = .0002685
INCLINATION    = 97.4386
RA_OF_ASC_NODE = 71.6841
ARG_OF_PERICENTER = 241.6593
MEAN_ANOMALY   = 332.0208

EPHEMERIS_TYPE = 0
CLASSIFICATION_TYPE = U
NORAD_CAT_ID   = 66698
ELEMENT_SET_NO = 999
REV_AT_EPOCH   = 130
BSTAR          = .25434E-2
MEAN_MOTION_DOT = .5104E-3
MEAN_MOTION_DDOT = 0

CCSDS_OMM_VERS = 2.0
CREATION_DATE  = 
ORIGINATOR     = 

OBJECT_NAME    = IRIDE FM5
OBJECT_ID      = 2025-276AK
CENTER_NAME    = EARTH
REF_FRAME      = TEME
TIME_SYSTEM    = UTC
MEAN_ELEMENT_THEORY = SGP/SGP4

EPOCH          = 2025-12-26T03:03:15.302016
MEAN_MOTION    = 15.17444242
ECCENTRICITY   = .0003943
INCLINATION    = 97.4398
RA_OF_ASC_NODE = 71.6502
ARG_OF_PERICENTER = 198.7865
MEAN_ANOMALY   = 161.3224

EPHEMERIS_TYPE = 0
CLASSIFICATION_TYPE = U
NORAD_CAT_ID   = 66699
ELEMENT_SET_NO = 999
REV_AT_EPOCH   = 415
BSTAR          = .98727E-3
MEAN_MOTION_DOT = .19731E-3
MEAN_MOTION_DDOT = 0

