TRANSPORTER-15Y         
1 66688U 25276Y   25359.53797266  .00011216  00000+0  56854-3 0  9996
2 66688  97.4426  71.0715 0003764 234.2435 125.8449 15.17117879  4062
TRANSPORTER-15Z         
1 66689U 25276Z   25356.89428733  .02294864  00000+0  86131-1 0  9996
2 66689  97.4409  68.4858 0027227 260.8557  98.9599 15.23073772  3663
TRANSPORTER-15AA        
1 66690U 25276AA  25360.13169284  .00006539  00000+0  33328-3 0  9993
2 66690  97.4389  71.6416 0003690 231.8633 128.2268 15.17097621  4156
TRANSPORTER-15AB        
1 66691U 25276AB  25360.12914292  .00011133  00000+0  56038-3 0  9999
2 66691  97.4412  71.6530 0003789 233.7026 126.3858 15.17366768  4152
TRANSPORTER-15AC        
1 66692U 25276AC  25360.19176289  .00006017  00000+0  30394-3 0  9995
2 66692  97.4413  71.7258 0001780 246.4774 113.6272 15.17447229  4164
TRANSPORTER-15AD        
1 66693U 25276AD  25360.19132197  .00014732  00000+0  73291-3 0  9992
2 66693  97.4367  71.7053 0003229 259.4473 100.6397 15.17711581  4165
YAM-9                   
1 66694U 25276AE  25360.18969086  .00010393  00000+0  51975-3 0  9991
2 66694  97.4414  71.7237 0001457 235.5203 124.5893 15.17618841  4161
IRIDE FM1               
1 66695U 25276AF  25360.00002315  .00033003  00000+0  16070-2 0  9995
2 66695  97.4391  71.5613 0001634 141.9613 328.0688 15.18291380  1306
IRIDE FM2               
1 66696U 25276AG  25360.12652595  .00008967  00000+0  45100-3 0  9998
2 66696  97.4384  71.6453 0002484 249.7526 110.3441 15.17459009  4154
IRIDE FM3               
1 66697U 25276AH  25360.17899080  .00006165  00000+0  30457-3 0  9993
2 66697  97.4382  71.7284 0001490 148.9417 211.1906 15.18215864  4168
IRIDE FM4               
1 66698U 25276AJ  25360.16668980  .00051040  00000+0  25434-2 0  9996
2 66698  97.4386  71.6841 0002685 241.6593 332.0208 15.17368539  1302
IRIDE FM5               
1 66699U 25276AK  25360.12726044  .00019731  00000+0  98727-3 0  9996
2 66699  97.4398  71.6502 0003943 198.7865 161.3224 15.17444242  4155
